OBJECT_NAME,OBJECT_ID,EPOCH,MEAN_MOTION,ECCENTRICITY,INCLINATION,RA_OF_ASC_NODE,ARG_OF_PERICENTER,MEAN_ANOMALY,EPHEMERIS_TYPE,CLASSIFICATION_TYPE,NORAD_CAT_ID,ELEMENT_SET_NO,REV_AT_EPOCH,BSTAR,MEAN_MOTION_DOT,MEAN_MOTION_DDOT
STARLINK-31382,2024-045G,2025-07-21T09:44:07.867104,15.27576268,0.0001559,43.0003,318.3575,271.4239,88.6434,0,U,59184,999,7779,-8.59E-05,-2.63E-05,0
STARLINK-31394,2024-045H,2025-07-21T08:34:16.079520,15.27582471,0.0001143,43.0019,308.4826,241.0829,118.9908,0,U,59185,999,7790,1.67E-05,1.98E-06,0
STARLINK-31403,2024-045J,2025-07-21T07:59:18.096576,15.27578019,0.0002171,43.0056,297.6934,280.7489,79.3119,0,U,59186,999,7792,8.67E-05,2.12E-05,0
STARLINK-31514,2024-045K,2025-07-21T01:07:18.717024,15.275654,0.0000469,43.0004,320.8269,352.4949,7.5896,0,U,59187,999,7773,3.83E-05,7.93E-06,0
STARLINK-31478,2024-045L,2025-07-21T00:52:29.755200,15.27572667,0.0001169,43.0015,320.7415,264.9392,95.1326,0,U,59188,999,7773,-2.52E-04,-7.18E-05,0
STARLINK-31498,2024-045M,2025-07-21T09:20:16.865376,15.27585336,0.0001069,43.0011,319.087,227.4239,132.6522,0,U,59189,999,7778,2.28E-05,3.67E-06,0
STARLINK-31563,2024-045N,2025-07-21T00:35:51.695232,15.27566928,0.0000835,42.9971,320.6584,63.3172,296.7765,0,U,59190,999,7773,-5.80E-05,-1.86E-05,0
STARLINK-31551,2024-045P,2025-07-20T15:55:00.276960,15.33010483,0.0003029,43.0041,319.6735,302.787,57.2692,0,U,59191,999,7771,9.53E-05,2.83E-05,0
STARLINK-31536,2024-045Q,2025-07-21T12:00:02.999808,15.27582677,0.0001493,43.0023,318.1697,272.6123,98.5711,0,U,59192,999,7780,-6.24E-04,-1.74E-04,0
STARLINK-31548,2024-045R,2025-07-21T09:29:32.170272,15.27575759,0.00007,43.0024,319.1405,232.3425,127.7364,0,U,59193,999,7778,6.24E-05,1.46E-05,0
STARLINK-31542,2024-045S,2025-07-21T08:06:16.017696,15.2757188,0.0001517,42.9973,318.7042,245.5576,114.5117,0,U,59194,999,7778,-1.49E-04,-4.37E-05,0
STARLINK-31554,2024-045T,2025-07-21T01:18:25.011360,15.27589933,0.0001227,43.0054,320.883,306.5091,53.5647,0,U,59195,999,7773,4.12E-06,-1.49E-06,0
STARLINK-31558,2024-045U,2025-07-21T09:45:58.952448,15.27579236,0.0001372,43.002,318.368,279.4762,80.5934,0,U,59196,999,7776,1.71E-04,4.45E-05,0
STARLINK-31275,2024-045V,2025-07-21T01:23:57.013728,15.27571323,0.0001717,43.0036,320.908,271.206,88.8595,0,U,59197,999,7773,1.99E-05,2.84E-06,0
STARLINK-31590,2024-045W,2025-07-20T08:19:19.901568,15.27575307,0.0000729,42.9959,325.0236,206.1334,153.9481,0,U,59198,999,7762,4.02E-05,8.44E-06,0
STARLINK-31567,2024-045X,2025-07-21T00:41:23.952480,15.27569165,0.0001085,43.002,320.6865,274.8546,85.2182,0,U,59199,999,7773,-1.46E-05,-6.64E-06,0
STARLINK-31503,2024-045Y,2025-07-21T08:37:44.878080,15.27556271,0.0001642,43.0045,318.8687,262.7196,97.3469,0,U,59200,999,7778,-1.24E-04,-3.66E-05,0
STARLINK-31603,2024-046A,2025-07-21T03:15:46.603584,15.3019474,0.0001337,53.16,151.1704,79.8072,280.308,0,U,59201,999,7736,3.13E-05,5.67E-06,0
STARLINK-31602,2024-046B,2025-07-20T20:06:22.495104,15.30192307,0.0001251,53.1598,152.1478,93.8212,266.2932,0,U,59202,999,7755,2.35E-05,3.38E-06,0
STARLINK-31577,2024-046C,2025-07-21T14:00:01.000224,15.30195775,0.0001305,53.1576,148.4353,89.936,187.6094,0,U,59203,999,7745,-2.59E-04,-8.03E-05,0
STARLINK-31522,2024-046D,2025-07-21T03:12:44.023104,15.30196373,0.0001396,53.1604,151.1548,87.4223,272.6938,0,U,59204,999,7736,1.76E-05,1.62E-06,0
STARLINK-31586,2024-046E,2025-07-21T02:36:16.181568,15.30187373,0.0001318,53.1604,150.9948,100.141,259.974,0,U,59205,999,7738,3.85E-06,-2.45E-06,0
STARLINK-31247,2024-046F,2025-07-20T06:33:19.571616,15.30189468,0.0001371,53.1596,155.0221,93.5683,266.5474,0,U,59206,999,7746,2.40E-05,3.52E-06,0
STARLINK-31591,2024-046G,2025-07-20T14:12:05.597280,15.30415957,0.0001852,53.1586,153.4575,70.1444,289.9756,0,U,59207,999,7729,4.88E-04,1.42E-04,0
STARLINK-31576,2024-046H,2025-07-21T03:47:31.058304,15.30208508,0.0001223,53.1597,150.5951,87.7772,272.3368,0,U,59208,999,7737,-6.59E-05,-2.31E-05,0
STARLINK-31601,2024-046J,2025-07-20T13:25:51.001248,15.3019425,0.0001202,53.1596,153.2578,94.5814,265.5324,0,U,59209,999,7751,2.64E-05,4.22E-06,0
STARLINK-31520,2024-046K,2025-07-21T04:25:31.035072,15.30190336,0.0001206,53.1596,150.7556,88.1317,271.9822,0,U,59210,999,7738,1.25E-05,1.20E-07,0
STARLINK-31496,2024-046L,2025-07-21T02:33:12.390624,15.39621763,0.0001213,53.1569,142.4663,91.1925,268.9218,0,U,59211,999,7749,3.14E-05,8.57E-06,0
STARLINK-31492,2024-046M,2025-07-21T03:18:48.759840,15.30195657,0.0001354,53.1601,151.1714,83.2825,276.8329,0,U,59212,999,7733,1.47E-05,7.70E-07,0
STARLINK-31517,2024-046N,2025-07-20T13:54:43.894944,15.30190639,0.0001304,53.1603,153.4083,96.8679,263.247,0,U,59213,999,7728,-8.74E-06,-6.18E-06,0
