STARLINK-31382          
1 59184U 24045G   25202.40564661 -.00002625  00000+0 -85908-4 0  9995
2 59184  43.0003 318.3575 0001559 271.4239  88.6434 15.27576268 77791
STARLINK-31394          
1 59185U 24045H   25202.35713055  .00000198  00000+0  16701-4 0  9999
2 59185  43.0019 308.4826 0001143 241.0829 118.9908 15.27582471 77904
STARLINK-31403          
1 59186U 24045J   25202.33284834  .00002124  00000+0  86713-4 0  9997
2 59186  43.0056 297.6934 0002171 280.7489  79.3119 15.27578019 77928
STARLINK-31514          
1 59187U 24045K   25202.04674441  .00000793  00000+0  38334-4 0  9999
2 59187  43.0004 320.8269 0000469 352.4949   7.5896 15.27565400 77732
STARLINK-31478          
1 59188U 24045L   25202.03645550 -.00007181  00000+0 -25172-3 0  9993
2 59188  43.0015 320.7415 0001169 264.9392  95.1326 15.27572667 77738
STARLINK-31498          
1 59189U 24045M   25202.38908409  .00000367  00000+0  22844-4 0  9998
2 59189  43.0011 319.0870 0001069 227.4239 132.6522 15.27585336 77781
STARLINK-31563          
1 59190U 24045N   25202.02490388 -.00001857  00000+0 -58024-4 0  9999
2 59190  42.9971 320.6584 0000835  63.3172 296.7765 15.27566928 77731
STARLINK-31551          
1 59191U 24045P   25201.66319765  .00002826  00000+0  95283-4 0  9991
2 59191  43.0041 319.6735 0003029 302.7870  57.2692 15.33010483 77715
STARLINK-31536          
1 59192U 24045Q   25202.50003472 -.00017384  00000+0 -62361-3 0  9998
2 59192  43.0023 318.1697 0001493 272.6123  98.5711 15.27582677 77808
STARLINK-31548          
1 59193U 24045R   25202.39551123  .00001455  00000+0  62383-4 0  9992
2 59193  43.0024 319.1405 0000700 232.3425 127.7364 15.27575759 77785
STARLINK-31542          
1 59194U 24045S   25202.33768539 -.00004369  00000+0 -14937-3 0  9998
2 59194  42.9973 318.7042 0001517 245.5576 114.5117 15.27571880 77780
STARLINK-31554          
1 59195U 24045T   25202.05445615 -.00000149  00000+0  41161-5 0  9997
2 59195  43.0054 320.8830 0001227 306.5091  53.5647 15.27589933 77733
STARLINK-31558          
1 59196U 24045U   25202.40693232  .00004452  00000+0  17122-3 0  9995
2 59196  43.0020 318.3680 0001372 279.4762  80.5934 15.27579236 77763
STARLINK-31275          
1 59197U 24045V   25202.05829877  .00000284  00000+0  19869-4 0  9993
2 59197  43.0036 320.9080 0001717 271.2060  88.8595 15.27571323 77738
STARLINK-31590          
1 59198U 24045W   25201.34675812  .00000844  00000+0  40189-4 0  9994
2 59198  42.9959 325.0236 0000729 206.1334 153.9481 15.27575307 77625
STARLINK-31567          
1 59199U 24045X   25202.02874945 -.00000664  00000+0 -14618-4 0  9999
2 59199  43.0020 320.6865 0001085 274.8546  85.2182 15.27569165 77731
STARLINK-31503          
1 59200U 24045Y   25202.35954720 -.00003659  00000+0 -12360-3 0  9996
2 59200  43.0045 318.8687 0001642 262.7196  97.3469 15.27556271 77789
STARLINK-31603          
1 59201U 24046A   25202.13595606  .00000567  00000+0  31261-4 0  9993
2 59201  53.1600 151.1704 0001337  79.8072 280.3080 15.30194740 77368
STARLINK-31602          
1 59202U 24046B   25201.83776036  .00000338  00000+0  23532-4 0  9996
2 59202  53.1598 152.1478 0001251  93.8212 266.2932 15.30192307 77558
STARLINK-31577          
1 59203U 24046C   25202.58334491 -.00008025  00000+0 -25913-3 0  9992
2 59203  53.1576 148.4353 0001305  89.9360 187.6094 15.30195775 77451
STARLINK-31522          
1 59204U 24046D   25202.13384286  .00000162  00000+0  17607-4 0  9995
2 59204  53.1604 151.1548 0001396  87.4223 272.6938 15.30196373 77369
STARLINK-31586          
1 59205U 24046E   25202.10852062 -.00000245  00000+0  38455-5 0  9993
2 59205  53.1604 150.9948 0001318 100.1410 259.9740 15.30187373 77387
STARLINK-31247          
1 59206U 24046F   25201.27314319  .00000352  00000+0  24034-4 0  9994
2 59206  53.1596 155.0221 0001371  93.5683 266.5474 15.30189468 77468
STARLINK-31591          
1 59207U 24046G   25201.59173145  .00014212  00000+0  48781-3 0  9994
2 59207  53.1586 153.4575 0001852  70.1444 289.9756 15.30415957 77290
STARLINK-31576          
1 59208U 24046H   25202.15799836 -.00002312  00000+0 -65945-4 0  9991
2 59208  53.1597 150.5951 0001223  87.7772 272.3368 15.30208508 77375
STARLINK-31601          
1 59209U 24046J   25201.55961807  .00000422  00000+0  26385-4 0  9997
2 59209  53.1596 153.2578 0001202  94.5814 265.5324 15.30194250 77510
STARLINK-31520          
1 59210U 24046K   25202.18438698  .00000012  00000+0  12529-4 0  9996
2 59210  53.1596 150.7556 0001206  88.1317 271.9822 15.30190336 77381
STARLINK-31496          
1 59211U 24046L   25202.10639341  .00000857  00000+0  31410-4 0  9994
2 59211  53.1569 142.4663 0001213  91.1925 268.9218 15.39621763 77495
STARLINK-31492          
1 59212U 24046M   25202.13806435  .00000077  00000+0  14747-4 0  9996
2 59212  53.1601 151.1714 0001354  83.2825 276.8329 15.30195657 77337
STARLINK-31517          
1 59213U 24046N   25201.57967471 -.00000618  00000+0 -87446-5 0  9992
2 59213  53.1603 153.4083 0001304  96.8679 263.2470 15.30190639 77282
